     2.11           N: GPS NAV DATA                         RINEX VERSION / TYPE
teqc  2019Feb25                         20221121 12:27:24UTCPGM / RUN BY / DATE
OSX ker:10.11.6|Core i5|gcc 4.3 -m64|OSX ker:10.10+|=+      COMMENT
    7.4506D-09  1.4901D-08 -5.9605D-08 -1.1921D-07          ION ALPHA
    7.9872D+04  1.6384D+04 -1.3107D+05 -1.3107D+05          ION BETA
   -1.862645149231D-09-5.329070518201D-15    61440     1550 DELTA-UTC: A0,A1,T,W
                                                            END OF HEADER
17 09  9 17 23 59 44.0 8.578132838011D-05 3.069544618484D-12 0.000000000000D+00
    9.000000000000D+00-4.340625000000D+01 4.365181827345D-09-9.753431191158D-01
   -2.209097146988D-06 4.656502627768D-03 1.318007707596D-05 5.153742757797D+03
    4.319840000000D+05 9.872019290924D-08 2.852066293678D+00 2.793967723846D-08
    9.603198706172D-01 1.245000000000D+02-2.642916870633D+00-7.903543500025D-09
   -8.786080261224D-11 1.000000000000D+00 1.549000000000D+03 0.000000000000D+00
    2.000000000000D+00 0.000000000000D+00-1.024454832077D-08 9.000000000000D+00
    4.281960000000D+05 4.000000000000D+00
